CONNECTA IOT-9          
1 64534U 25135G   26068.84536903  .00005057  00000+0  23979-3 0  9997
2 64534  97.4635 184.7076 0006292 145.8970 214.2670 15.19721393 39739
WISDOM A                
1 66688U 25276Y   26068.71070924  .00006515  00000+0  32143-3 0  9990
2 66688  97.4292 143.9314 0004616   4.7568 355.3709 15.18235273 15310
