[{"OBJECT_NAME":"CONNECTA IOT-9","OBJECT_ID":"2025-135G","EPOCH":"2026-03-09T20:17:19.885056","MEAN_MOTION":15.19721393,"ECCENTRICITY":0.00062915,"INCLINATION":97.4635,"RA_OF_ASC_NODE":184.7076,"ARG_OF_PERICENTER":145.897,"MEAN_ANOMALY":214.267,"EPHEMERIS_TYPE":0,"CLASSIFICATION_TYPE":"U","NORAD_CAT_ID":64534,"ELEMENT_SET_NO":999,"REV_AT_EPOCH":3973,"BSTAR":0.0002397867,"MEAN_MOTION_DOT":5.057e-5,"MEAN_MOTION_DDOT":0},{"OBJECT_NAME":"WISDOM A","OBJECT_ID":"2025-276Y","EPOCH":"2026-03-09T17:03:25.278336","MEAN_MOTION":15.18235273,"ECCENTRICITY":0.00046161,"INCLINATION":97.4292,"RA_OF_ASC_NODE":143.9314,"ARG_OF_PERICENTER":4.7568,"MEAN_ANOMALY":355.3709,"EPHEMERIS_TYPE":0,"CLASSIFICATION_TYPE":"U","NORAD_CAT_ID":66688,"ELEMENT_SET_NO":999,"REV_AT_EPOCH":1531,"BSTAR":0.0003214307,"MEAN_MOTION_DOT":6.515e-5,"MEAN_MOTION_DDOT":0}]
